XM-5                    
1 37185U 10053A   17345.41454038 -.00000212  00000-0  00000+0 0  9997
2 37185   0.0109 340.8124 0001189  24.5445 138.9862  1.00272017 26264
